STARLINK-31176          
1 58745U 24005T   26068.48997124 -.00003501  00000+0 -12083-3 0  9993
2 58745  43.0008 220.8392 0001327 240.5194 119.5525 15.26762477120457
FLOCK 4G-25             
1 62646U 25009AP  26068.74572546  .00010373  00000+0  38902-3 0  9990
2 62646  97.4049 151.4141 0000828 316.3151  43.8023 15.27424196 63734
